[{"OBJECT_NAME":"STARLINK-30281","OBJECT_ID":"2023-129U","EPOCH":"2026-03-09T22:00:01.999584","MEAN_MOTION":15.26734456,"ECCENTRICITY":0.00011071,"INCLINATION":43.0001,"RA_OF_ASC_NODE":116.902,"ARG_OF_PERICENTER":261.9305,"MEAN_ANOMALY":108.6731,"EPHEMERIS_TYPE":0,"CLASSIFICATION_TYPE":"U","NORAD_CAT_ID":57716,"ELEMENT_SET_NO":999,"REV_AT_EPOCH":557,"BSTAR":0.00019526642,"MEAN_MOTION_DOT":4.981e-5,"MEAN_MOTION_DDOT":0},{"OBJECT_NAME":"FLOCK 4G-11","OBJECT_ID":"2025-009W","EPOCH":"2026-03-09T10:57:03.681504","MEAN_MOTION":15.27220677,"ECCENTRICITY":0.00016118,"INCLINATION":97.3964,"RA_OF_ASC_NODE":150.6183,"ARG_OF_PERICENTER":333.5407,"MEAN_ANOMALY":26.575,"EPHEMERIS_TYPE":0,"CLASSIFICATION_TYPE":"U","NORAD_CAT_ID":62629,"ELEMENT_SET_NO":999,"REV_AT_EPOCH":6368,"BSTAR":0.00047740378,"MEAN_MOTION_DOT":0.00012672,"MEAN_MOTION_DDOT":0}]
